[{"OBJECT_NAME":"BANDWAGON-2 OBJECT D","OBJECT_ID":"2024-247D","EPOCH":"2026-03-09T12:32:33.670752","MEAN_MOTION":15.29076102,"ECCENTRICITY":0.00034883,"INCLINATION":44.9954,"RA_OF_ASC_NODE":115.671,"ARG_OF_PERICENTER":351.1453,"MEAN_ANOMALY":8.9368,"EPHEMERIS_TYPE":0,"CLASSIFICATION_TYPE":"U","NORAD_CAT_ID":62380,"ELEMENT_SET_NO":999,"REV_AT_EPOCH":6773,"BSTAR":0.00040119131,"MEAN_MOTION_DOT":0.00011259,"MEAN_MOTION_DDOT":0},{"OBJECT_NAME":"STARLINK-35694","OBJECT_ID":"2025-257K","EPOCH":"2026-03-09T16:04:04.417248","MEAN_MOTION":15.30200096,"ECCENTRICITY":0.00012687,"INCLINATION":53.1607,"RA_OF_ASC_NODE":216.8869,"ARG_OF_PERICENTER":78.5683,"MEAN_ANOMALY":281.546,"EPHEMERIS_TYPE":0,"CLASSIFICATION_TYPE":"U","NORAD_CAT_ID":66389,"ELEMENT_SET_NO":999,"REV_AT_EPOCH":1973,"BSTAR":0.00083579024,"MEAN_MOTION_DOT":0.00024476,"MEAN_MOTION_DDOT":0}]
